{"type": "FeatureCollection", "features": [ {"type": "Feature", "properties": {"norad_id": 31456, "name": "FENGYUN 1C DEB", "group": "fengyun-1c-debris", "lat": -14.695154047242516, "lon": -81.5339593584501, "alt_km": 749.9913768179113, "timestamp": "2025-12-24T07:45:06.482431+00:00", "meta": {"OBJECT_NAME": "FENGYUN 1C DEB", "OBJECT_ID": "1999-025BUU", "EPOCH": "2025-12-23T00:52:42.342816", "MEAN_MOTION": 14.42450443, "ECCENTRICITY": 0.00676918, "INCLINATION": 98.5774, "RA_OF_ASC_NODE": 99.4412, "ARG_OF_PERICENTER": 282.9876, "MEAN_ANOMALY": 76.3761, "EPHEMERIS_TYPE": 0, "CLASSIFICATION_TYPE": "U", "NORAD_CAT_ID": 31456, "ELEMENT_SET_NO": 999, "REV_AT_EPOCH": 97615, "BSTAR": 0.00086456041, "MEAN_MOTION_DOT": 2.896e-05, "MEAN_MOTION_DDOT": 0}, "tle": {"line1": "1 31456U 99025BUU 25357.03660119  .00002896  00000+0  86456-3 0  9998", "line2": "2 31456  98.5774  99.4412 0067691 282.9876  76.3761 14.42450443976150"}}, "geometry": {"type": "Point", "coordinates": [-81.5339593584501, -14.695154047242516]}}, {"type": "Feature", "properties": {"norad_id": 31459, "name": "FENGYUN 1C DEB", "group": "fengyun-1c-debris", "lat": -30.863421831591488, "lon": 81.21213686434204, "alt_km": 777.8686515444624, "timestamp": "2025-12-24T07:45:06.482441+00:00", "meta": {"OBJECT_NAME": "FENGYUN 1C DEB", "OBJECT_ID": "1999-025BUX", "EPOCH": "2025-12-12T23:44:38.705568", "MEAN_MOTION": 14.44083824, "ECCENTRICITY": 0.00940456, "INCLINATION": 98.1765, "RA_OF_ASC_NODE": 255.2445, "ARG_OF_PERICENTER": 130.906, "MEAN_ANOMALY": 230.0325, "EPHEMERIS_TYPE": 0, "CLASSIFICATION_TYPE": "U", "NORAD_CAT_ID": 31459, "ELEMENT_SET_NO": 999, "REV_AT_EPOCH": 64561, "BSTAR": 0.0020176648, "MEAN_MOTION_DOT": 7.253e-05, "MEAN_MOTION_DDOT": 0}, "tle": {"line1": "1 31459U 99025BUX 25346.98933687  .00007253  00000+0  20177-2 0  9995", "line2": "2 31459  98.1765 255.2445 0094045 130.9060 230.0325 14.44083824645613"}}, "geometry": {"type": "Point", "coordinates": [81.21213686434204, -30.863421831591488]}}, {"type": "Feature", "properties": {"norad_id": 31462, "name": "FENGYUN 1C DEB", "group": "fengyun-1c-debris", "lat": 5.573234020958827, "lon": -162.760905985816, "alt_km": 827.6976865945117, "timestamp": "2025-12-24T07:45:06.482453+00:00", "meta": {"OBJECT_NAME": "FENGYUN 1C DEB", "OBJECT_ID": "1999-025BVA", "EPOCH": "2025-12-22T13:11:27.568896", "MEAN_MOTION": 14.13022344, "ECCENTRICITY": 0.00325464, "INCLINATION": 98.689, "RA_OF_ASC_NODE": 14.663, "ARG_OF_PERICENTER": 176.2989, "MEAN_ANOMALY": 342.0684, "EPHEMERIS_TYPE": 0, "CLASSIFICATION_TYPE": "U", "NORAD_CAT_ID": 31462, "ELEMENT_SET_NO": 999, "REV_AT_EPOCH": 95994, "BSTAR": 0.00028157306, "MEAN_MOTION_DOT": 4.85e-06, "MEAN_MOTION_DDOT": 0}, "tle": {"line1": "1 31462U 99025BVA 25356.54962464  .00000485  00000+0  28157-3 0  9994", "line2": "2 31462  98.6890  14.6630 0032546 176.2989 342.0684 14.13022344959947"}}, "geometry": {"type": "Point", "coordinates": [-162.760905985816, 5.573234020958827]}}, {"type": "Feature", "properties": {"norad_id": 31463, "name": "FENGYUN 1C DEB", "group": "fengyun-1c-debris", "lat": 57.98773916309682, "lon": -34.17213842493481, "alt_km": 669.6183380714647, "timestamp": "2025-12-24T07:45:06.482463+00:00", "meta": {"OBJECT_NAME": "FENGYUN 1C DEB", "OBJECT_ID": "1999-025BVB", "EPOCH": "2025-12-23T04:45:01.858752", "MEAN_MOTION": 14.36987164, "ECCENTRICITY": 0.02131915, "INCLINATION": 99.0817, "RA_OF_ASC_NODE": 339.4644, "ARG_OF_PERICENTER": 9.2607, "MEAN_ANOMALY": 351.2414, "EPHEMERIS_TYPE": 0, "CLASSIFICATION_TYPE": "U", "NORAD_CAT_ID": 31463, "ELEMENT_SET_NO": 999, "REV_AT_EPOCH": 64870, "BSTAR": 0.00056955164, "MEAN_MOTION_DOT": 2.135e-05, "MEAN_MOTION_DDOT": 0}, "tle": {"line1": "1 31463U 99025BVB 25357.19793818  .00002135  00000+0  56955-3 0  9993", "line2": "2 31463  99.0817 339.4644 0213191   9.2607 351.2414 14.36987164648701"}}, "geometry": {"type": "Point", "coordinates": [-34.17213842493481, 57.98773916309682]}}, {"type": "Feature", "properties": {"norad_id": 31464, "name": "FENGYUN 1C DEB", "group": "fengyun-1c-debris", "lat": 79.80768531878459, "lon": -75.68586957630959, "alt_km": 856.0816209164477, "timestamp": "2025-12-24T07:45:06.482473+00:00", "meta": {"OBJECT_NAME": "FENGYUN 1C DEB", "OBJECT_ID": "1999-025BVC", "EPOCH": "2025-12-22T09:28:15.906720", "MEAN_MOTION": 14.12487173, "ECCENTRICITY": 0.00435645, "INCLINATION": 98.7934, "RA_OF_ASC_NODE": 42.9998, "ARG_OF_PERICENTER": 214.4792, "MEAN_ANOMALY": 160.9614, "EPHEMERIS_TYPE": 0, "CLASSIFICATION_TYPE": "U", "NORAD_CAT_ID": 31464, "ELEMENT_SET_NO": 999, "REV_AT_EPOCH": 94816, "BSTAR": 0.00027917728, "MEAN_MOTION_DOT": 4.77e-06, "MEAN_MOTION_DDOT": 0}, "tle": {"line1": "1 31464U 99025BVC 25356.39462855  .00000477  00000+0  27918-3 0  9993", "line2": "2 31464  98.7934  42.9998 0043564 214.4792 160.9614 14.12487173948165"}}, "geometry": {"type": "Point", "coordinates": [-75.68586957630959, 79.80768531878459]}}, {"type": "Feature", "properties": {"norad_id": 31466, "name": "FENGYUN 1C DEB", "group": "fengyun-1c-debris", "lat": -57.48279068327657, "lon": 94.03251959411189, "alt_km": 663.5252311165186, "timestamp": "2025-12-24T07:45:06.482485+00:00", "meta": {"OBJECT_NAME": "FENGYUN 1C DEB", "OBJECT_ID": "1999-025BVE", "EPOCH": "2025-12-16T02:14:17.384928", "MEAN_MOTION": 14.1852535, "ECCENTRICITY": 0.02990788, "INCLINATION": 99.0889, "RA_OF_ASC_NODE": 280.1326, "ARG_OF_PERICENTER": 299.2838, "MEAN_ANOMALY": 57.8749, "EPHEMERIS_TYPE": 0, "CLASSIFICATION_TYPE": "U", "NORAD_CAT_ID": 31466, "ELEMENT_SET_NO": 999, "REV_AT_EPOCH": 96376, "BSTAR": 0.00020920335, "MEAN_MOTION_DOT": 6.16e-06, "MEAN_MOTION_DDOT": 0}, "tle": {"line1": "1 31466U 99025BVE 25350.09325677  .00000616  00000+0  20920-3 0  9997", "line2": "2 31466  99.0889 280.1326 0299078 299.2838  57.8749 14.18525350963768"}}, "geometry": {"type": "Point", "coordinates": [94.03251959411189, -57.48279068327657]}}, {"type": "Feature", "properties": {"norad_id": 31468, "name": "FENGYUN 1C DEB", "group": "fengyun-1c-debris", "lat": 47.519592593532145, "lon": -15.006090961045068, "alt_km": 716.4701996853928, "timestamp": "2025-12-24T07:45:06.482496+00:00", "meta": {"OBJECT_NAME": "FENGYUN 1C DEB", "OBJECT_ID": "1999-025BVG", "EPOCH": "2025-12-15T17:40:52.277088", "MEAN_MOTION": 14.46598121, "ECCENTRICITY": 0.01665536, "INCLINATION": 98.1678, "RA_OF_ASC_NODE": 345.7354, "ARG_OF_PERICENTER": 157.6429, "MEAN_ANOMALY": 203.2135, "EPHEMERIS_TYPE": 0, "CLASSIFICATION_TYPE": "U", "NORAD_CAT_ID": 31468, "ELEMENT_SET_NO": 999, "REV_AT_EPOCH": 67415, "BSTAR": 0.00027310227, "MEAN_MOTION_DOT": 1.122e-05, "MEAN_MOTION_DDOT": 0}, "tle": {"line1": "1 31468U 99025BVG 25349.73671617  .00001122  00000+0  27310-3 0  9999", "line2": "2 31468  98.1678 345.7354 0166553 157.6429 203.2135 14.46598121674154"}}, "geometry": {"type": "Point", "coordinates": [-15.006090961045068, 47.519592593532145]}}, {"type": "Feature", "properties": {"norad_id": 31473, "name": "FENGYUN 1C DEB", "group": "fengyun-1c-debris", "lat": -39.49690593394669, "lon": -155.94859713075832, "alt_km": 821.8868956176302, "timestamp": "2025-12-24T07:45:06.482506+00:00", "meta": {"OBJECT_NAME": "FENGYUN 1C DEB", "OBJECT_ID": "1999-025BVM", "EPOCH": "2025-12-23T22:52:35.157216", "MEAN_MOTION": 14.29861226, "ECCENTRICITY": 0.0064482, "INCLINATION": 98.5446, "RA_OF_ASC_NODE": 30.8069, "ARG_OF_PERICENTER": 341.5207, "MEAN_ANOMALY": 136.5552, "EPHEMERIS_TYPE": 0, "CLASSIFICATION_TYPE": "U", "NORAD_CAT_ID": 31473, "ELEMENT_SET_NO": 999, "REV_AT_EPOCH": 69681, "BSTAR": 0.0014317478, "MEAN_MOTION_DOT": 3.725e-05, "MEAN_MOTION_DDOT": 0}, "tle": {"line1": "1 31473U 99025BVM 25357.95318469  .00003725  00000+0  14317-2 0  9994", "line2": "2 31473  98.5446  30.8069 0064482 341.5207 136.5552 14.29861226696816"}}, "geometry": {"type": "Point", "coordinates": [-155.94859713075832, -39.49690593394669]}}, {"type": "Feature", "properties": {"norad_id": 31474, "name": "FENGYUN 1C DEB", "group": "fengyun-1c-debris", "lat": 63.28937940452737, "lon": 25.710039540332495, "alt_km": 867.8953190854145, "timestamp": "2025-12-24T07:45:06.482518+00:00", "meta": {"OBJECT_NAME": "FENGYUN 1C DEB", "OBJECT_ID": "1999-025BVN", "EPOCH": "2025-12-17T20:31:53.420160", "MEAN_MOTION": 14.10616871, "ECCENTRICITY": 0.00720818, "INCLINATION": 99.1448, "RA_OF_ASC_NODE": 37.8022, "ARG_OF_PERICENTER": 192.292, "MEAN_ANOMALY": 167.6494, "EPHEMERIS_TYPE": 0, "CLASSIFICATION_TYPE": "U", "NORAD_CAT_ID": 31474, "ELEMENT_SET_NO": 999, "REV_AT_EPOCH": 95042, "BSTAR": 0.0012018353, "MEAN_MOTION_DOT": 2.151e-05, "MEAN_MOTION_DDOT": 0}, "tle": {"line1": "1 31474U 99025BVN 25351.85547940  .00002151  00000+0  12018-2 0  9994", "line2": "2 31474  99.1448  37.8022 0072081 192.2920 167.6494 14.10616871950423"}}, "geometry": {"type": "Point", "coordinates": [25.710039540332495, 63.28937940452737]}}, {"type": "Feature", "properties": {"norad_id": 31475, "name": "FENGYUN 1C DEB", "group": "fengyun-1c-debris", "lat": 80.99789076043196, "lon": 150.97577379508473, "alt_km": 612.5898556604898, "timestamp": "2025-12-24T07:45:06.482528+00:00", "meta": {"OBJECT_NAME": "FENGYUN 1C DEB", "OBJECT_ID": "1999-025BVP", "EPOCH": "2025-12-23T22:59:46.307040", "MEAN_MOTION": 14.38250709, "ECCENTRICITY": 0.02117718, "INCLINATION": 98.9391, "RA_OF_ASC_NODE": 247.1174, "ARG_OF_PERICENTER": 74.1506, "MEAN_ANOMALY": 288.2912, "EPHEMERIS_TYPE": 0, "CLASSIFICATION_TYPE": "U", "NORAD_CAT_ID": 31475, "ELEMENT_SET_NO": 999, "REV_AT_EPOCH": 96240, "BSTAR": 0.00069377615, "MEAN_MOTION_DOT": 2.684e-05, "MEAN_MOTION_DDOT": 0}, "tle": {"line1": "1 31475U 99025BVP 25357.95817485  .00002684  00000+0  69378-3 0  9999", "line2": "2 31475  98.9391 247.1174 0211771  74.1506 288.2912 14.38250709962401"}}, "geometry": {"type": "Point", "coordinates": [150.97577379508473, 80.99789076043196]}}]}